#dP2018  2 13  0  0  0.00000000      96 __u+U ITR00 FIT  IAC
## 1988 172800.00000000   900.00000000 58162 0.0000000000000
+   87   C01C02C03C04C05C06C07C08C09C10C11C12C13C14E01E02E03
+        E04E05E07E08E09E11E12E14E18E19E24E26E30G01G02G03G05
+        G06G07G08G09G10G11G12G13G14G15G16G17G19G20G21G22G23
+        G24G25G26G27G28G29G30G31G32J01J02J03R01R02R03R04R05
+        R06R07R08R09R10R11R13R14R15R16R17R18R19R20R21R22R23
+        R24R26  0  0  0  0  0  0  0  0  0  0  0  0  0  0  0
++        12  0 12 12 12  9  9  9  9  9  8  8  9  8  6  7  7
++         6  7  6  7  7  7  7  7  6  6  6  6  7  3  3  4  4
++         3  3  3  4  3  3  3  3  4  4  3  4  4  3  3  3  4
++         4  4  3  3  4  4  3  4  3 12 12 12  5  5  5  5  6
++         6  5  7  5  5  5  5  5  6  5  5  5  5  5  7  5  6
++         6  9  0  0  0  0  0  0  0  0  0  0  0  0  0  0  0
%c M  cc GPS ccc cccc cccc cccc cccc ccccc ccccc ccccc ccccc
%c cc cc ccc ccc cccc cccc cccc cccc ccccc ccccc ccccc ccccc
%f  0.0000000  0.000000000  0.00000000000  0.000000000000000
%f  0.0000000  0.000000000  0.00000000000  0.000000000000000
%i    0    0    0    0      0      0      0      0         0
%i    0    0    0    0      0      0      0      0         0
/* INFORMATION & ANALYSIS CENTER (IAC) OF MCC   (RAPID DATA)
/* S/V CLOCKS ARE ALIGNED TO GPS & GLONASS TIME RESPECTIVELY
/* USING THE BROADCAST EPHEMERIS                            
/* PCV:IGS14_1984 OL/AL:FES2004  NONE     YN ORB:CoN CLK:CoN
*  2018 02 13 21 30  0.00000000
PC01 -32289.772562  27091.184717   -841.312535    363.489596
PC02      0.000000      0.000000      0.000000 999999.999999
PC03 -14798.782945  39506.403149     13.350046    -96.219978
PC04 -39604.746729  14397.215270   -373.628429   -112.673356
PC05  21929.604754  36002.669144   1490.251869   -150.880161
PC06 -10004.411004  36884.115828  18400.921788   -680.567785
PC07 -14548.563639  21307.195039 -33265.945394   -310.460700
PC08 -24246.567552  30177.699051  16475.803455    173.805544
PC09  -1564.070953  42019.203149   5046.227423   -406.449389
PC10   1279.253713  26814.151667 -32339.017802    -14.360163
PC11 -19050.328063  15045.486974 -13635.806373   -390.541910
PC12 -14861.976709  -4894.608908 -23038.121709    380.699724
PC13 -10980.676917  30665.351840  26675.313352   -203.277733
PC14 -16090.840356   3960.850899  22496.481457    208.926063
PE01  19445.144882  16803.231849 -14691.936084   -276.035483
PE02 -19450.583652 -16794.365294  14677.845434      4.628538
PE03 -11990.527518 -25147.945101  10008.831718      1.180369
PE04  17711.691873   7256.806472 -22580.378857     24.603377
PE05    775.442059 -28352.363535  -8464.654384    322.540021
PE07 -13061.154084  14963.961214  21948.580211     84.713709
PE08 -17651.731092  -7142.208784  22663.597527   6642.397353
PE09  12804.649917 -15018.647223 -22060.300102   6875.720147
PE11  23130.285358 -18318.196890   2250.501360   1849.187380
PE12  22535.292957  -2750.559917  18995.664408   3500.947056
PE14  15043.865276   1526.253036  17886.269433   6631.515508
PE18 -21616.608048    874.997201 -24331.097209   6429.795170
PE19  11036.499826  26173.983198  -8342.050789     19.383145
PE24  20677.819793  -6680.727441  20099.959250   6863.917454
PE26 -10399.250675  23006.751122  15457.489544   6273.580439
PE30 -28432.038571  -7188.722501  -3966.618196   6079.435372
PG01  -2979.798823 -14795.165953 -21983.434143    -28.668619
PG02 -19152.981957  14821.016046  11130.166271    201.094364
PG03 -10077.860646 -21562.975380 -11854.496605      8.769688
PG05  -8584.673260  13018.045065  21384.887306    -14.397757
PG06 -25661.023555   6871.234761   -419.464622    414.510377
PG07 -18953.443210  -7718.863096  17369.508412    237.206941
PG08   4716.805683 -25949.680473  -2376.197701    -91.087286
PG09 -10495.692076 -14840.712736  19324.732663    500.803436
PG10  21318.664333   6818.204369 -14381.877696    159.513691
PG11   -359.519832 -19088.277059 -19074.664439   -736.190843
PG12   7353.342778  21738.258682 -13723.141526    350.449639
PG13 -12395.544672  23012.071086   4626.735371    -95.592381
PG14  16460.815804 -11884.964299 -16754.526515    -93.900517
PG15  -2045.120787  26085.351573  -3328.778131   -357.019911
PG16   8877.207676 -11795.423920  21902.092069     32.306660
PG17 -15507.911838   2581.564738 -21000.395529   -123.435707
PG19 -16781.157519  10332.546346 -18184.465888   -457.273672
PG20  10367.692468  20662.688461  12976.693882    500.825491
PG21  20762.208518   5726.328573  16365.855809   -430.735269
PG22  -3919.653820 -20141.704272 -16612.815526   -290.593273
PG23  -2930.209558 -23575.880432  11689.278447   -218.956699
PG24   -224.889028  16185.548344 -21129.707092    -46.010291
PG25  17694.063820  19854.400522  -2435.580444   -538.273028
PG26  16957.999817  -3479.035666  20176.123748   -251.596200
PG27  12287.691338 -21194.392110   9879.082628    366.982175
PG28 -20308.198519 -11781.177367 -11747.139730    688.530961
PG29   6450.709489  18609.200339  17818.015960    496.796269
PG30 -24293.800004  -2535.100389  10612.758536 999999.999999
PG31  25867.506740  -6924.059663    892.803400    141.938836
PG32  15997.779691  -3152.568025 -20928.380744   -532.272640
PJ01 -25414.739434  22891.168786  29773.109980   -106.657055
PJ02 -33204.841923  16215.510291 -15895.349384 999999.999999
PJ03 -20805.299843  31226.413435 -14537.071533      0.119330
PR01  -3979.009778  15953.342607  19493.938032     22.045285
PR02   7320.040335  24262.611772   3151.318777    295.094364
PR03  13252.600698  16811.727588 -13868.676932    124.064157
PR04  11268.015469   -938.197990 -22854.912558    249.804025
PR05   2956.273425 -17286.625247 -18537.794466   -247.486745
PR06  -8103.360725 -24067.834910  -2248.721264    126.963757
PR07 -13302.369601 -16419.727888  14290.603375    -30.029523
PR08 -11492.639850    265.749632  22817.019147     38.356229
PR09  -7653.773294 -11849.682361  21278.785545     48.262109
PR10 -22477.571550  -8294.470278   8836.481588     18.200455
PR11 -23873.430005    -14.498697  -9022.713622    -21.751652
PR13   8583.534408  11439.918289 -21141.640761     -7.445494
PR14  22282.742013   8430.135403  -9099.817636     24.673268
PR15  24857.922189   1939.042489   5645.805009     -6.388807
PR16  11911.412447  -8176.924330  21028.987420     85.542529
PR17   9521.591699   5305.938580  23078.390386    108.982254
PR18  17608.677446  -9778.587732  15630.373362    184.725595
PR19  16466.540467 -19456.116064   -947.789026    -44.503101
PR20   4690.376523 -17589.135785 -17829.328905   -327.094441
PR21  -9595.267782  -5062.243604 -23076.999596     29.224452
PR22 -18039.011582  11343.071136 -14112.126742    -18.558679
PR23 -14644.185636  20419.722327   4406.277247    136.101336
PR24  -3866.065125  17412.393624  18226.078613   -162.416069
PR26   4528.332925 -17837.461864 -17656.021738     -0.479681
EOF
